{
  "type": "FeatureCollection",
  "features": [
    {
      "type": "Feature",
      "properties": {
        "norad_id": 66623,
        "name": "STARLINK-35920",
        "group": "last-30-days",
        "lat": -43.402707088367855,
        "lon": 104.73834922480161,
        "alt_km": 452.31487120416386,
        "timestamp": "2025-12-20T14:38:00.687648+00:00",
        "meta_object_name": "STARLINK-35920",
        "meta_object_id": "2025-271G",
        "meta_epoch": "2025-12-20T00:00:02.000160",
        "meta_mean_motion": 15.39609547,
        "meta_eccentricity": 0.0001114,
        "meta_inclination": 53.1601,
        "meta_ra_of_asc_node": 152.7686,
        "meta_arg_of_pericenter": 79.6665,
        "meta_mean_anomaly": 79.9296,
        "meta_ephemeris_type": 0,
        "meta_classification_type": "U",
        "meta_norad_cat_id": 66623,
        "meta_element_set_no": 999,
        "meta_rev_at_epoch": 541,
        "meta_bstar": 0.00041204,
        "meta_mean_motion_dot": 0.00016111,
        "meta_mean_motion_ddot": 0,
        "tle_line1": "1 66623U 25271G   25354.00002315  .00016111  00000+0  41204-3 0  9993",
        "tle_line2": "2 66623  53.1601 152.7686 0001114  79.6665  79.9296 15.39609547  5413"
      },
      "geometry": {
        "type": "Point",
        "coordinates": [
          104.73834922480161,
          -43.402707088367855
        ]
      }
    },
    {
      "type": "Feature",
      "properties": {
        "norad_id": 66624,
        "name": "STARLINK-35927",
        "group": "last-30-days",
        "lat": 53.10976764256967,
        "lon": -123.05660654562153,
        "alt_km": 420.80523024711783,
        "timestamp": "2025-12-20T14:38:00.687658+00:00",
        "meta_object_name": "STARLINK-35927",
        "meta_object_id": "2025-271H",
        "meta_epoch": "2025-12-19T22:44:25.582848",
        "meta_mean_motion": 15.46532201,
        "meta_eccentricity": 8.49e-05,
        "meta_inclination": 53.159,
        "meta_ra_of_asc_node": 152.7553,
        "meta_arg_of_pericenter": 106.2501,
        "meta_mean_anomaly": 253.86,
        "meta_ephemeris_type": 0,
        "meta_classification_type": "U",
        "meta_norad_cat_id": 66624,
        "meta_element_set_no": 999,
        "meta_rev_at_epoch": 532,
        "meta_bstar": -0.0084107,
        "meta_mean_motion_dot": -0.00403682,
        "meta_mean_motion_ddot": 0,
        "tle_line1": "1 66624U 25271H   25353.94751832 -.00403682  00000+0 -84107-2 0  9994",
        "tle_line2": "2 66624  53.1590 152.7553 0000849 106.2501 253.8600 15.46532201  5326"
      },
      "geometry": {
        "type": "Point",
        "coordinates": [
          -123.05660654562153,
          53.10976764256967
        ]
      }
    },
    {
      "type": "Feature",
      "properties": {
        "norad_id": 66625,
        "name": "STARLINK-35929",
        "group": "last-30-days",
        "lat": 33.649810998657955,
        "lon": 179.6282193875308,
        "alt_km": 442.59291384597964,
        "timestamp": "2025-12-20T14:38:00.687669+00:00",
        "meta_object_name": "STARLINK-35929",
        "meta_object_id": "2025-271J",
        "meta_epoch": "2025-12-20T06:00:02.999808",
        "meta_mean_motion": 15.39588721,
        "meta_eccentricity": 8.216e-05,
        "meta_inclination": 53.1591,
        "meta_ra_of_asc_node": 151.3853,
        "meta_arg_of_pericenter": 88.3039,
        "meta_mean_anomaly": 120.8369,
        "meta_ephemeris_type": 0,
        "meta_classification_type": "U",
        "meta_norad_cat_id": 66625,
        "meta_element_set_no": 999,
        "meta_rev_at_epoch": 545,
        "meta_bstar": 0.0012518636,
        "meta_mean_motion_dot": 0.00049951,
        "meta_mean_motion_ddot": 0,
        "tle_line1": "1 66625U 25271J   25354.25003472  .00049951  00000+0  12519-2 0  9991",
        "tle_line2": "2 66625  53.1591 151.3853 0000821  88.3039 120.8369 15.39588721  5451"
      },
      "geometry": {
        "type": "Point",
        "coordinates": [
          179.6282193875308,
          33.649810998657955
        ]
      }
    },
    {
      "type": "Feature",
      "properties": {
        "norad_id": 66626,
        "name": "STARLINK-35902",
        "group": "last-30-days",
        "lat": -26.173010555912356,
        "lon": 128.22241373888104,
        "alt_km": 451.2473013792005,
        "timestamp": "2025-12-20T14:38:00.687682+00:00",
        "meta_object_name": "STARLINK-35902",
        "meta_object_id": "2025-271K",
        "meta_epoch": "2025-12-20T06:00:02.999808",
        "meta_mean_motion": 15.39594692,
        "meta_eccentricity": 0.00013134,
        "meta_inclination": 53.1601,
        "meta_ra_of_asc_node": 151.5388,
        "meta_arg_of_pericenter": 87.443,
        "meta_mean_anomaly": 44.4279,
        "meta_ephemeris_type": 0,
        "meta_classification_type": "U",
        "meta_norad_cat_id": 66626,
        "meta_element_set_no": 999,
        "meta_rev_at_epoch": 545,
        "meta_bstar": 0.0012736818,
        "meta_mean_motion_dot": 0.00050844,
        "meta_mean_motion_ddot": 0,
        "tle_line1": "1 66626U 25271K   25354.25003472  .00050844  00000+0  12737-2 0  9997",
        "tle_line2": "2 66626  53.1601 151.5388 0001313  87.4430  44.4279 15.39594692  5456"
      },
      "geometry": {
        "type": "Point",
        "coordinates": [
          128.22241373888104,
          -26.173010555912356
        ]
      }
    },
    {
      "type": "Feature",
      "properties": {
        "norad_id": 66627,
        "name": "STARLINK-35904",
        "group": "last-30-days",
        "lat": 14.346151421291895,
        "lon": 160.79566490140172,
        "alt_km": 445.86688749522364,
        "timestamp": "2025-12-20T14:38:00.687692+00:00",
        "meta_object_name": "STARLINK-35904",
        "meta_object_id": "2025-271L",
        "meta_epoch": "2025-12-20T06:00:02.999808",
        "meta_mean_motion": 15.39590441,
        "meta_eccentricity": 7.967e-05,
        "meta_inclination": 53.1591,
        "meta_ra_of_asc_node": 151.4361,
        "meta_arg_of_pericenter": 85.7841,
        "meta_mean_anomaly": 97.5885,
        "meta_ephemeris_type": 0,
        "meta_classification_type": "U",
        "meta_norad_cat_id": 66627,
        "meta_element_set_no": 999,
        "meta_rev_at_epoch": 529,
        "meta_bstar": 0.0012510223,
        "meta_mean_motion_dot": 0.0004992,
        "meta_mean_motion_ddot": 0,
        "tle_line1": "1 66627U 25271L   25354.25003472  .00049920  00000+0  12510-2 0  9990",
        "tle_line2": "2 66627  53.1591 151.4361 0000796  85.7841  97.5885 15.39590441  5298"
      },
      "geometry": {
        "type": "Point",
        "coordinates": [
          160.79566490140172,
          14.346151421291895
        ]
      }
    },
    {
      "type": "Feature",
      "properties": {
        "norad_id": 66628,
        "name": "STARLINK-35862",
        "group": "last-30-days",
        "lat": 52.392829600374014,
        "lon": -107.15045044772849,
        "alt_km": 420.0111887967041,
        "timestamp": "2025-12-20T14:38:00.687702+00:00",
        "meta_object_name": "STARLINK-35862",
        "meta_object_id": "2025-271M",
        "meta_epoch": "2025-12-19T22:41:57.757632",
        "meta_mean_motion": 15.46540943,
        "meta_eccentricity": 0.0002224,
        "meta_inclination": 53.1592,
        "meta_ra_of_asc_node": 152.7424,
        "meta_arg_of_pericenter": 62.1747,
        "meta_mean_anomaly": 297.9486,
        "meta_ephemeris_type": 0,
        "meta_classification_type": "U",
        "meta_norad_cat_id": 66628,
        "meta_element_set_no": 999,
        "meta_rev_at_epoch": 532,
        "meta_bstar": -0.0077533,
        "meta_mean_motion_dot": -0.00373781,
        "meta_mean_motion_ddot": 0,
        "tle_line1": "1 66628U 25271M   25353.94580738 -.00373781  00000+0 -77533-2 0  9994",
        "tle_line2": "2 66628  53.1592 152.7424 0002224  62.1747 297.9486 15.46540943  5323"
      },
      "geometry": {
        "type": "Point",
        "coordinates": [
          -107.15045044772849,
          52.392829600374014
        ]
      }
    },
    {
      "type": "Feature",
      "properties": {
        "norad_id": 66629,
        "name": "STARLINK-35956",
        "group": "last-30-days",
        "lat": 47.38120693607677,
        "lon": -85.01804657866897,
        "alt_km": 411.53653165425385,
        "timestamp": "2025-12-20T14:38:00.687715+00:00",
        "meta_object_name": "STARLINK-35956",
        "meta_object_id": "2025-271N",
        "meta_epoch": "2025-12-18T16:00:00.999936",
        "meta_mean_motion": 15.49463337,
        "meta_eccentricity": 5.424e-05,
        "meta_inclination": 53.1591,
        "meta_ra_of_asc_node": 158.846,
        "meta_arg_of_pericenter": 63.7637,
        "meta_mean_anomaly": 4.4961,
        "meta_ephemeris_type": 0,
        "meta_classification_type": "U",
        "meta_norad_cat_id": 66629,
        "meta_element_set_no": 999,
        "meta_rev_at_epoch": 519,
        "meta_bstar": 0.0002238515,
        "meta_mean_motion_dot": 0.00012088,
        "meta_mean_motion_ddot": 0,
        "tle_line1": "1 66629U 25271N   25352.66667824  .00012088  00000+0  22385-3 0  9999",
        "tle_line2": "2 66629  53.1591 158.8460 0000542  63.7637   4.4961 15.49463337  5194"
      },
      "geometry": {
        "type": "Point",
        "coordinates": [
          -85.01804657866897,
          47.38120693607677
        ]
      }
    }
  ]
}